{
  "type": "FeatureCollection",
  "features": [
    {
      "type": "Feature",
      "properties": {
        "norad_id": 33412,
        "name": "COSMO-SKYMED 3",
        "group": "resource",
        "lat": -23.984363499238142,
        "lon": 22.97506154748436,
        "alt_km": 550.3394975024012,
        "timestamp": "2025-12-21T22:41:41.104249+00:00",
        "meta_object_name": "COSMO-SKYMED 3",
        "meta_object_id": "2008-054A",
        "meta_epoch": "2025-12-21T13:48:57.602016",
        "meta_mean_motion": 15.05425425,
        "meta_eccentricity": 0.00170455,
        "meta_inclination": 97.8462,
        "meta_ra_of_asc_node": 206.1164,
        "meta_arg_of_pericenter": 142.6606,
        "meta_mean_anomaly": 217.5808,
        "meta_ephemeris_type": 0,
        "meta_classification_type": "U",
        "meta_norad_cat_id": 33412,
        "meta_element_set_no": 999,
        "meta_rev_at_epoch": 93020,
        "meta_bstar": 6.2452159e-05,
        "meta_mean_motion_dot": 8.33e-06,
        "meta_mean_motion_ddot": 0,
        "tle_line1": "1 33412U 08054A   25355.57566669  .00000833  00000+0  62452-4 0  9996",
        "tle_line2": "2 33412  97.8462 206.1164 0017045 142.6606 217.5808 15.05425425930201"
      },
      "geometry": {
        "type": "Point",
        "coordinates": [
          22.97506154748436,
          -23.984363499238142
        ]
      }
    },
    {
      "type": "Feature",
      "properties": {
        "norad_id": 33446,
        "name": "YAOGAN-4",
        "group": "resource",
        "lat": 25.750185741214093,
        "lon": 109.80484564517445,
        "alt_km": 626.6795790505957,
        "timestamp": "2025-12-21T22:41:41.104259+00:00",
        "meta_object_name": "YAOGAN-4",
        "meta_object_id": "2008-061A",
        "meta_epoch": "2025-12-21T09:02:40.964928",
        "meta_mean_motion": 14.8270568,
        "meta_eccentricity": 0.00130663,
        "meta_inclination": 97.9195,
        "meta_ra_of_asc_node": 285.3917,
        "meta_arg_of_pericenter": 292.927,
        "meta_mean_anomaly": 67.0564,
        "meta_ephemeris_type": 0,
        "meta_classification_type": "U",
        "meta_norad_cat_id": 33446,
        "meta_element_set_no": 999,
        "meta_rev_at_epoch": 91931,
        "meta_bstar": 0.00013803316,
        "meta_mean_motion_dot": 1.061e-05,
        "meta_mean_motion_ddot": 0,
        "tle_line1": "1 33446U 08061A   25355.37686302  .00001061  00000+0  13803-3 0  9995",
        "tle_line2": "2 33446  97.9195 285.3917 0013066 292.9270  67.0564 14.82705680919316"
      },
      "geometry": {
        "type": "Point",
        "coordinates": [
          109.80484564517445,
          25.750185741214093
        ]
      }
    },
    {
      "type": "Feature",
      "properties": {
        "norad_id": 33492,
        "name": "GOSAT (IBUKI)",
        "group": "resource",
        "lat": 63.41213020531157,
        "lon": 87.93762991453681,
        "alt_km": 662.1741878191297,
        "timestamp": "2025-12-21T22:41:41.104270+00:00",
        "meta_object_name": "GOSAT (IBUKI)",
        "meta_object_id": "2009-002A",
        "meta_epoch": "2025-12-21T12:34:59.966688",
        "meta_mean_motion": 14.67541076,
        "meta_eccentricity": 9.931e-05,
        "meta_inclination": 98.0772,
        "meta_ra_of_asc_node": 104.0056,
        "meta_arg_of_pericenter": 101.8988,
        "meta_mean_anomaly": 258.2328,
        "meta_ephemeris_type": 0,
        "meta_classification_type": "U",
        "meta_norad_cat_id": 33492,
        "meta_element_set_no": 999,
        "meta_rev_at_epoch": 90540,
        "meta_bstar": 0.00012639174,
        "meta_mean_motion_dot": 6.69e-06,
        "meta_mean_motion_ddot": 0,
        "tle_line1": "1 33492U 09002A   25355.52430517  .00000669  00000+0  12639-3 0  9993",
        "tle_line2": "2 33492  98.0772 104.0056 0000993 101.8988 258.2328 14.67541076905407"
      },
      "geometry": {
        "type": "Point",
        "coordinates": [
          87.93762991453681,
          63.41213020531157
        ]
      }
    },
    {
      "type": "Feature",
      "properties": {
        "norad_id": 35681,
        "name": "DEIMOS-1",
        "group": "resource",
        "lat": 27.225431251070418,
        "lon": 152.12087855682879,
        "alt_km": 642.7625157497705,
        "timestamp": "2025-12-21T22:41:41.104281+00:00",
        "meta_object_name": "DEIMOS-1",
        "meta_object_id": "2009-041A",
        "meta_epoch": "2025-12-21T14:25:47.187840",
        "meta_mean_motion": 14.74963646,
        "meta_eccentricity": 0.00025714,
        "meta_inclination": 97.7145,
        "meta_ra_of_asc_node": 155.7918,
        "meta_arg_of_pericenter": 65.5267,
        "meta_mean_anomaly": 294.6211,
        "meta_ephemeris_type": 0,
        "meta_classification_type": "U",
        "meta_norad_cat_id": 35681,
        "meta_element_set_no": 999,
        "meta_rev_at_epoch": 88070,
        "meta_bstar": 3.7212553e-05,
        "meta_mean_motion_dot": 2.03e-06,
        "meta_mean_motion_ddot": 0,
        "tle_line1": "1 35681U 09041A   25355.60124060  .00000203  00000+0  37213-4 0  9990",
        "tle_line2": "2 35681  97.7145 155.7918 0002571  65.5267 294.6211 14.74963646880708"
      },
      "geometry": {
        "type": "Point",
        "coordinates": [
          152.12087855682879,
          27.225431251070418
        ]
      }
    },
    {
      "type": "Feature",
      "properties": {
        "norad_id": 35682,
        "name": "DUBAISAT-1",
        "group": "resource",
        "lat": -48.06289673213527,
        "lon": 135.47275290145683,
        "alt_km": 647.5524871811804,
        "timestamp": "2025-12-21T22:41:41.104306+00:00",
        "meta_object_name": "DUBAISAT-1",
        "meta_object_id": "2009-041B",
        "meta_epoch": "2025-12-21T14:46:20.515008",
        "meta_mean_motion": 14.74626553,
        "meta_eccentricity": 0.00092341,
        "meta_inclination": 97.9798,
        "meta_ra_of_asc_node": 126.1649,
        "meta_arg_of_pericenter": 282.6201,
        "meta_mean_anomaly": 77.3975,
        "meta_ephemeris_type": 0,
        "meta_classification_type": "U",
        "meta_norad_cat_id": 35682,
        "meta_element_set_no": 999,
        "meta_rev_at_epoch": 87892,
        "meta_bstar": 0.0001606321,
        "meta_mean_motion_dot": 1.021e-05,
        "meta_mean_motion_ddot": 0,
        "tle_line1": "1 35682U 09041B   25355.61551522  .00001021  00000+0  16063-3 0  9997",
        "tle_line2": "2 35682  97.9798 126.1649 0009234 282.6201  77.3975 14.74626553878928"
      },
      "geometry": {
        "type": "Point",
        "coordinates": [
          135.47275290145683,
          -48.06289673213527
        ]
      }
    },
    {
      "type": "Feature",
      "properties": {
        "norad_id": 35931,
        "name": "OCEANSAT-2",
        "group": "resource",
        "lat": 12.574194226186124,
        "lon": 177.46014766633118,
        "alt_km": 905.9058719025816,
        "timestamp": "2025-12-21T22:41:41.104319+00:00",
        "meta_object_name": "OCEANSAT-2",
        "meta_object_id": "2009-051A",
        "meta_epoch": "2025-12-21T15:02:11.448960",
        "meta_mean_motion": 13.99622987,
        "meta_eccentricity": 0.001599,
        "meta_inclination": 98.2217,
        "meta_ra_of_asc_node": 355.3254,
        "meta_arg_of_pericenter": 21.7522,
        "meta_mean_anomaly": 338.4321,
        "meta_ephemeris_type": 0,
        "meta_classification_type": "U",
        "meta_norad_cat_id": 35931,
        "meta_element_set_no": 999,
        "meta_rev_at_epoch": 85449,
        "meta_bstar": -4.5689332e-05,
        "meta_mean_motion_dot": -1.04e-06,
        "meta_mean_motion_ddot": 0,
        "tle_line1": "1 35931U 09051A   25355.62652140 -.00000104  00000+0 -45689-4 0  9994",
        "tle_line2": "2 35931  98.2217 355.3254 0015990  21.7522 338.4321 13.99622987854492"
      },
      "geometry": {
        "type": "Point",
        "coordinates": [
          177.46014766633118,
          12.574194226186124
        ]
      }
    },
    {
      "type": "Feature",
      "properties": {
        "norad_id": 35946,
        "name": "WORLDVIEW-2 (WV-2)",
        "group": "resource",
        "lat": 68.62069546731703,
        "lon": -90.70094952546742,
        "alt_km": 757.6785714789949,
        "timestamp": "2025-12-21T22:41:41.104340+00:00",
        "meta_object_name": "WORLDVIEW-2 (WV-2)",
        "meta_object_id": "2009-055A",
        "meta_epoch": "2025-12-21T12:09:55.283040",
        "meta_mean_motion": 14.37727569,
        "meta_eccentricity": 0.00048774,
        "meta_inclination": 98.4778,
        "meta_ra_of_asc_node": 66.4711,
        "meta_arg_of_pericenter": 49.1744,
        "meta_mean_anomaly": 310.9865,
        "meta_ephemeris_type": 0,
        "meta_classification_type": "U",
        "meta_norad_cat_id": 35946,
        "meta_element_set_no": 999,
        "meta_rev_at_epoch": 85011,
        "meta_bstar": 5.867145e-05,
        "meta_mean_motion_dot": 1.33e-06,
        "meta_mean_motion_ddot": 0,
        "tle_line1": "1 35946U 09055A   25355.50688985  .00000133  00000+0  58671-4 0  9992",
        "tle_line2": "2 35946  98.4778  66.4711 0004877  49.1744 310.9865 14.37727569850110"
      },
      "geometry": {
        "type": "Point",
        "coordinates": [
          -90.70094952546742,
          68.62069546731703
        ]
      }
    }
  ]
}